IRIDIUM 171             
1 43929U 19002H   25034.52573321  .00000370  00000+0  12498-3 0  9997
2 43929  86.3997 202.1889 0002358  85.0960 275.0505 14.34215485317481
IRIDIUM 170             
1 43930U 19002J   25034.82592669  .00001907  00000+0  29832-3 0  9995
2 43930  86.6113 201.8423 0002112  96.7522 263.3936 14.72277418325930
IRIDIUM 167             
1 43931U 19002K   25034.79846161  .00000409  00000+0  13902-3 0  9998
2 43931  86.3988 201.8423 0002419  94.2124 265.9349 14.34218025317528
IRIDIUM 181             
1 56726U 23068S   25034.69748647  .00000739  00000+0  21355-3 0  9997
2 56726  86.4471 265.0067 0002512  80.9185 279.2300 14.43300053 90538
IRIDIUM 177             
1 56727U 23068T   25034.49035802  .00001272  00000+0  16382-3 0  9995
2 56727  86.1981 205.5294 0001908  95.1943 264.9495 14.80248367 92595
IRIDIUM 174             
1 56728U 23068U   25034.55249625  .00001187  00000+0  15278-3 0  9991
2 56728  86.1988 205.6222 0002224  83.1962 276.9512 14.80224579 92609
IRIDIUM 178             
1 56729U 23068V   25034.61469006  .00000988  00000+0  12654-3 0  9999
2 56729  86.5749 233.9970 0002668  70.0983 290.0525 14.80229149 92613
IRIDIUM 179             
1 56730U 23068W   25034.60925829  .00000945  00000+0  12088-3 0  9994
2 56730  86.6753 241.0462 0002166  82.7848 277.3620 14.80231781 92619
